{"type": "Feature", "properties": {"ID_HDC_G0": 6559.0, "UC_NM_MN": "Bikaner", "UACE20": null, "NAMELSAD20": null, "gadmid": null, "hierid": null, "ISO": null, "processing_id": 6558}, "geometry": {"type": "MultiPolygon", "coordinates": [[[[73.32731210824261, 28.07743845472519], [73.34887579361482, 28.07743845472519], [73.3380887783721, 28.051991018394563], [73.34886903543197, 28.051991018394563], [73.3452759971726, 28.0435090468258], [73.38839491310276, 28.0435090468258], [73.3704428627244, 28.001102988371574], [73.35966577064703, 28.001102988371574], [73.356080623603, 27.992622535832577], [73.34530405821097, 27.992622535832577], [73.34172101479064, 27.984142336102334], [73.33094497585222, 27.984142336102334], [73.32016893691382, 27.984142336102334], [73.31658852228529, 27.97566238907724], [73.3058130095689, 27.97566238907724], [73.30223469622537, 27.96718269465373], [73.29145970949949, 27.96718269465373], [73.29503749685253, 27.97566238907724], [73.28426198413614, 27.97566238907724], [73.28784082009861, 27.984142336102334], [73.2770647811602, 27.984142336102334], [73.28064466585874, 27.992622535832577], [73.2698681004667, 27.992622535832577], [73.2770315434963, 28.00958369382293], [73.26625392450183, 28.00958369382293], [73.26983748331872, 28.018064652290327], [73.25905933717524, 28.018064652290327], [73.2734072360128, 28.051991018394563], [73.2841874930727, 28.051991018394563], [73.28777894209344, 28.060473243498137], [73.29855972746297, 28.060473243498137], [73.3093405128325, 28.060473243498137], [73.31293459875594, 28.068955722240386], [73.32371591266754, 28.068955722240386], [73.32731210824261, 28.07743845472519]]]]}}