{"type": "Feature", "properties": {"ID_HDC_G0": 8005.0, "UC_NM_MN": "Hyderabad", "UACE20": null, "NAMELSAD20": null, "gadmid": null, "hierid": null, "ISO": null, "processing_id": 8004}, "geometry": {"type": "MultiPolygon", "coordinates": [[[[78.41261833255241, 17.616471122450715], [78.42289656277035, 17.616471122450715], [78.4206827864245, 17.60823362491012], [78.43096072650137, 17.60823362491012], [78.42874787027436, 17.59999627076297], [78.43902552036874, 17.59999627076297], [78.43460285806077, 17.58352199234543], [78.44487992866587, 17.58352199234543], [78.44267012248866, 17.57528506792328], [78.45294690358685, 17.57528506792328], [78.44853034070873, 17.558811648272954], [78.45880654326842, 17.558811648272954], [78.456599786472, 17.55057515289311], [78.49770344058409, 17.55057515289311], [78.49549673718872, 17.542338800375724], [78.52632361115279, 17.542338800375724], [78.52191209998975, 17.525866523625158], [78.53218714737264, 17.525866523625158], [78.52998291725667, 17.51763059924042], [78.571081953194, 17.51763059924042], [78.568877779138, 17.509394817415046], [78.59970119136993, 17.509394817415046], [78.59749736243691, 17.501159178073284], [78.62831991042218, 17.501159178073284], [78.61072590234181, 17.435279183665426], [78.62099778603478, 17.435279183665426], [78.61003936081951, 17.394108798204318], [78.62030981278723, 17.394108798204318], [78.61812146253052, 17.38587514568862], [78.60785129643482, 17.38587514568862], [78.601294339522, 17.361175035935023], [78.59102503009692, 17.361175035935023], [78.58666032320146, 17.344709001838954], [78.59692906230026, 17.344709001838954], [78.59474823106218, 17.336476196286423], [78.61528513940583, 17.336476196286423], [78.61092595150797, 17.32001100779516], [78.60065806671807, 17.32001100779516], [78.59039018192816, 17.32001100779516], [78.58821296347142, 17.311778624705592], [78.5779453631365, 17.311778624705592], [78.57142178126816, 17.28708231915649], [78.56115503335474, 17.28708231915649], [78.56332807358451, 17.295314280461636], [78.54279400979111, 17.295314280461636], [78.54062153752795, 17.28708231915649], [78.52008804170113, 17.28708231915649], [78.5222599459977, 17.295314280461636], [78.50172588220428, 17.295314280461636], [78.49955454587433, 17.28708231915649], [78.48928779796093, 17.28708231915649], [78.48711794706071, 17.27885049829542], [78.47685148297347, 17.27885049829542], [78.47251595157749, 17.262387277604184], [78.46225005467122, 17.262387277604184], [78.4665850188862, 17.27885049829542], [78.45631855479895, 17.27885049829542], [78.45848755422072, 17.28708231915649], [78.41742056256712, 17.28708231915649], [78.41525269844993, 17.27885049829542], [78.40498623436268, 17.27885049829542], [78.41149257608228, 17.303546382286218], [78.40122526004508, 17.303546382286218], [78.40339615744288, 17.311778624705592], [78.39312855710796, 17.311778624705592], [78.39530037091997, 17.32001100779516], [78.38503248613007, 17.32001100779516], [78.38720521632118, 17.328243531630296], [78.36666887751682, 17.328243531630296], [78.36884223928229, 17.336476196286423], [78.35857378511048, 17.336476196286423], [78.36510022274527, 17.361175035935023], [78.3548309133202, 17.361175035935023], [78.35700851028167, 17.369408264629477], [78.34673891545727, 17.369408264629477], [78.34891742874619, 17.377641634522178], [78.31810778760239, 17.377641634522178], [78.32028664575542, 17.38587514568862], [78.31001647965972, 17.38587514568862], [78.31219625375604, 17.394108798204318], [78.32246670572376, 17.394108798204318], [78.32464796778827, 17.402342592144787], [78.33491870578563, 17.402342592144787], [78.33928540985977, 17.418810604602232], [78.3290140993301, 17.418810604602232], [78.33119896937006, 17.427044823270325], [78.3414705664025, 17.427044823270325], [78.34803325743373, 17.45174832993908], [78.33776079994618, 17.45174832993908], [78.33995048456367, 17.459983115968857], [78.30913225069877, 17.459983115968857], [78.30694342748356, 17.45174832993908], [78.29667096999603, 17.45174832993908], [78.29448363735087, 17.443513685863138], [78.28421146683954, 17.443513685863138], [78.28202562416661, 17.435279183665426], [78.27175374047363, 17.435279183665426], [78.28269355094915, 17.476453114192523], [78.27242023158549, 17.476453114192523], [78.28119259830686, 17.509394817415046], [78.27091812756288, 17.509394817415046], [78.27311394264834, 17.51763059924042], [78.25256442467966, 17.51763059924042], [78.2547608680348, 17.525866523625158], [78.24448582065193, 17.525866523625158], [78.24668318048425, 17.534102590645002], [78.22613250860495, 17.534102590645002], [78.22833049616673, 17.542338800375724], [78.2694329947855, 17.542338800375724], [78.26723385236356, 17.534102590645002], [78.3083351961222, 17.534102590645002], [78.31053549340427, 17.542338800375724], [78.32081111805896, 17.542338800375724], [78.3252159099924, 17.558811648272954], [78.36632072023117, 17.558811648272954], [78.36411656471978, 17.55057515289311], [78.38466839177582, 17.55057515289311], [78.38687312535056, 17.558811648272954], [78.39714932791026, 17.558811648272954], [78.39935555874591, 17.567048286591064], [78.40963205049565, 17.567048286591064], [78.41404871685059, 17.58352199234543], [78.40377164624549, 17.58352199234543], [78.40598150348015, 17.591759059933363], [78.3854267829392, 17.591759059933363], [78.38321750503532, 17.58352199234543], [78.37294043443023, 17.58352199234543], [78.37735961980242, 17.59999627076297], [78.38763726989683, 17.59999627076297], [78.38984896619395, 17.60823362491012], [78.40012690627078, 17.60823362491012], [78.41040484634765, 17.60823362491012], [78.41261833255241, 17.616471122450715]]]]}}