{"type": "Feature", "properties": {"ID_HDC_G0": 7887.0, "UC_NM_MN": "Kochi", "UACE20": null, "NAMELSAD20": null, "gadmid": null, "hierid": null, "ISO": null, "processing_id": 7886}, "geometry": {"type": "MultiPolygon", "coordinates": [[[[76.38040335281963, 10.211205931966111], [76.39047992318278, 10.211205931966111], [76.38927386685931, 10.203068702180227], [76.40942668940697, 10.203068702180227], [76.40822132979402, 10.194931551974173], [76.41829758211233, 10.194931551974173], [76.41709307842642, 10.186794481281746], [76.46747354590956, 10.186794481281746], [76.46867884370391, 10.194931551974173], [76.47875509602223, 10.194931551974173], [76.47634519833515, 10.178657490036759], [76.46626926352641, 10.178657490036759], [76.4638637444325, 10.162383745624377], [76.47393936226679, 10.162383745624377], [76.47273796698914, 10.154246992324634], [76.48281342653684, 10.154246992324634], [76.4804133646228, 10.137973723207237], [76.49048850799845, 10.137973723207237], [76.4892898414836, 10.129837207257284], [76.49936482697379, 10.129837207257284], [76.49816701753977, 10.121700770291636], [76.50824184527815, 10.121700770291636], [76.50704489305275, 10.11356441224416], [76.52719423329323, 10.11356441224416], [76.52599798091985, 10.105428133048738], [76.51592346828413, 10.105428133048738], [76.5147283882107, 10.097291932639246], [76.50465403292588, 10.097291932639246], [76.50226723096982, 10.081019767913618], [76.49219318998603, 10.081019767913618], [76.49338592667849, 10.089155810949574], [76.47323753054346, 10.089155810949574], [76.47204510801843, 10.081019767913618], [76.45189702605083, 10.081019767913618], [76.45308913440842, 10.089155810949574], [76.43294073827337, 10.089155810949574], [76.43174894408322, 10.081019767913618], [76.42167490309943, 10.081019767913618], [76.41160086211563, 10.081019767913618], [76.4104103951557, 10.072883803465286], [76.40033651112206, 10.072883803465286], [76.397958929336, 10.056612110067135], [76.38788535880207, 10.056612110067135], [76.38551214003753, 10.040340730226497], [76.37543888246927, 10.040340730226497], [76.37070521341882, 10.007798909103826], [76.38077784665721, 10.007798909103826], [76.37723774841572, 9.983393362420342], [76.38730991480745, 9.983393362420342], [76.38613174917776, 9.97525833587059], [76.40627577126351, 9.97525833587059], [76.40392185268601, 9.958988515892168], [76.39385015194087, 9.958988515892168], [76.39032732166294, 9.934584367737424], [76.40039855796108, 9.934584367737424], [76.3992261480109, 9.926449806572045], [76.38915506626189, 9.926449806572045], [76.37908398451287, 9.926449806572045], [76.37791289397975, 9.918315322739828], [76.36784196664668, 9.918315322739828], [76.36550312442466, 9.90204658681107], [76.3755737433254, 9.90204658681107], [76.37440568293238, 9.89391233458265], [76.38447614781673, 9.89391233458265], [76.38330894331551, 9.885778159423623], [76.37323863231441, 9.885778159423623], [76.34302769931111, 9.885778159423623], [76.34186211958304, 9.877644061268064], [76.33179196233208, 9.877644061268064], [76.32946413715568, 9.861376095703692], [76.3395339873057, 9.861376095703692], [76.33837143448599, 9.853242228163063], [76.34844113128516, 9.853242228163063], [76.34495906522774, 9.828841085716693], [76.33488982768286, 9.828841085716693], [76.33373130885126, 9.820707524740136], [76.32366222412513, 9.820707524740136], [76.31673319192545, 9.771907762578802], [76.30666502131966, 9.771907762578802], [76.29659685071387, 9.771907762578802], [76.29774886653296, 9.780040865685157], [76.30781718915983, 9.780040865685157], [76.31012454664595, 9.79630730040499], [76.30005591957817, 9.79630730040499], [76.30121095707206, 9.80444063215014], [76.29114217758445, 9.80444063215014], [76.29577179282296, 9.836974723235453], [76.28570240232635, 9.836974723235453], [76.2868621724587, 9.845108437362281], [76.25665354171458, 9.845108437362281], [76.26013751988808, 9.869510040050054], [76.25006751625412, 9.869510040050054], [76.25472631651634, 9.90204658681107], [76.2446556976156, 9.90204658681107], [76.24815992177571, 9.926449806572045], [76.23808884002669, 9.926449806572045], [76.24042972294355, 9.942719006301928], [76.23035833196298, 9.942719006301928], [76.23387675727577, 9.967123387049863], [76.22380490144842, 9.967123387049863], [76.22497957249173, 9.97525833587059], [76.21490756144885, 9.97525833587059], [76.21843716270843, 9.99966364897095], [76.20836468521897, 9.99966364897095], [76.20954308160469, 10.007798909103826], [76.21961571484309, 10.007798909103826], [76.22197584750691, 10.024069663414856], [76.21190290237047, 10.024069663414856], [76.21308432702504, 10.032205157725077], [76.20301122573942, 10.032205157725077], [76.21012004243966, 10.081019767913618], [76.22019408342345, 10.081019767913618], [76.2178201239965, 10.064747917538485], [76.22789385121354, 10.064747917538485], [76.22552361954912, 10.04847638098516], [76.23559703353347, 10.04847638098516], [76.23441327651378, 10.040340730226497], [76.26463304921853, 10.040340730226497], [76.26581727548651, 10.04847638098516], [76.27589068947084, 10.04847638098516], [76.27826248729865, 10.064747917538485], [76.26818876008161, 10.064747917538485], [76.26937601868474, 10.072883803465286], [76.2593021346511, 10.072883803465286], [76.26167937112552, 10.089155810949574], [76.25160517305801, 10.089155810949574], [76.25279515080537, 10.097291932639246], [76.24272079552055, 10.097291932639246], [76.24510346992669, 10.11356441224416], [76.23502879980646, 10.11356441224416], [76.23622149634183, 10.121700770291636], [76.22614666860343, 10.121700770291636], [76.2273402187388, 10.129837207257284], [76.21726523324861, 10.129837207257284], [76.21845963685567, 10.137973723207237], [76.20838449348003, 10.137973723207237], [76.21077601874913, 10.154246992324634], [76.28130423558298, 10.154246992324634], [76.29137969513066, 10.154246992324634], [76.29257824124956, 10.162383745624377], [76.33288071258671, 10.162383745624377], [76.34295633042102, 10.162383745624377], [76.34415668135853, 10.170520578173026], [76.35423245761315, 10.170520578173026], [76.35543398063028, 10.178657490036759], [76.36550991543902, 10.178657490036759], [76.36791632052075, 10.194931551974173], [76.37799257283908, 10.194931551974173], [76.38040335281963, 10.211205931966111]]]]}}