{"type": "Feature", "properties": {"ID_HDC_G0": 9691.0, "UC_NM_MN": "Kolkata", "UACE20": null, "NAMELSAD20": null, "gadmid": null, "hierid": null, "ISO": null, "processing_id": 9690}, "geometry": {"type": "MultiPolygon", "coordinates": [[[[88.43222715012496, 23.063230360235217], [88.45323742029606, 23.063230360235217], [88.43964674631322, 23.029836000903924], [88.42914322532198, 23.029836000903924], [88.41896818213297, 23.00479229646856], [88.42947049454325, 23.00479229646856], [88.42608159918619, 22.99644478786747], [88.46808923890077, 22.99644478786747], [88.47147974418436, 23.00479229646856], [88.48198205659465, 23.00479229646856], [88.48537455926262, 23.01314000144986], [88.49587727434384, 23.01314000144986], [88.49248436900493, 23.00479229646856], [88.50298668141521, 23.00479229646856], [88.49281632711262, 22.979750359455196], [88.50331743264569, 22.979750359455196], [88.49993010090627, 22.971403439468702], [88.51043080452526, 22.971403439468702], [88.50366011782903, 22.9547101874969], [88.493160217471, 22.9547101874969], [88.48639670416794, 22.938017718942795], [88.49689580202082, 22.938017718942795], [88.49351603197861, 22.929671778228517], [88.48301733509501, 22.929671778228517], [88.47963955709061, 22.921326033106066], [88.46914126098748, 22.921326033106066], [88.44814466878125, 22.921326033106066], [88.44476968313317, 22.91298048348794], [88.43427178762181, 22.91298048348794], [88.42752738504014, 22.896289970414866], [88.43802447993392, 22.896289970414866], [88.42455313230738, 22.862911286473725], [88.43504862822813, 22.862911286473725], [88.42160107045088, 22.829535720813592], [88.41110717049, 22.829535720813592], [88.39098575838406, 22.779478206882647], [88.40147727004678, 22.779478206882647], [88.39812884301233, 22.771135967473835], [88.42960218582374, 22.771135967473835], [88.43295180503493, 22.779478206882647], [88.44344331669765, 22.779478206882647], [88.44009330009422, 22.771135967473835], [88.45058441436468, 22.771135967473835], [88.44723558279352, 22.76279392199833], [88.47870773399129, 22.76279392199833], [88.48205775717612, 22.771135967473835], [88.49254887144657, 22.771135967473835], [88.49925446223322, 22.787820640311846], [88.48876255299054, 22.787820640311846], [88.50555227013801, 22.829535720813592], [88.51604617009887, 22.829535720813592], [88.51268465734763, 22.821192315975242], [88.52317815878892, 22.821192315975242], [88.51981783377873, 22.812849105593088], [88.53031093688847, 22.812849105593088], [88.52695179951154, 22.804506089579917], [88.51645909454537, 22.804506089579917], [88.50639238667394, 22.779478206882647], [88.51688389833666, 22.779478206882647], [88.51017988518905, 22.76279392199833], [88.52067060225498, 22.76279392199833], [88.51732057350837, 22.754452070369044], [88.52781089355737, 22.754452070369044], [88.52446205075623, 22.74611041249894], [88.51397212753656, 22.74611041249894], [88.50393628145872, 22.721086600573493], [88.51442501531525, 22.721086600573493], [88.5110824995534, 22.712745716870018], [88.55303585066112, 22.712745716870018], [88.54969333188888, 22.70440502649078], [88.53920539000424, 22.70440502649078], [88.52918850329134, 22.679384114429464], [88.51870174796045, 22.679384114429464], [88.4977282372987, 22.679384114429464], [88.49439361953691, 22.67104419647823], [88.48390725934973, 22.67104419647823], [88.4739140574414, 22.64602559961644], [88.48439923331928, 22.64602559961644], [88.48107092534322, 22.637686452703843], [88.50204048830692, 22.637686452703843], [88.49871296816505, 22.629347498333992], [88.51968174271029, 22.629347498333992], [88.51302985468095, 22.612670166875603], [88.50254625526668, 22.612670166875603], [88.49590145662735, 22.59599360454773], [88.50638426892972, 22.59599360454773], [88.4997449816487, 22.579317810657155], [88.48926295571223, 22.579317810657155], [88.4726942310273, 22.537631683297747], [88.48317429430983, 22.537631683297747], [88.47986487262409, 22.529295032682196], [88.49034454393437, 22.529295032682196], [88.4870363012847, 22.520958573483608], [88.49751558080878, 22.520958573483608], [88.49420851709415, 22.51262230561553], [88.48372962917028, 22.51262230561553], [88.473819031313, 22.487614649130244], [88.46334131707432, 22.487614649130244], [88.46004131323372, 22.479279145720177], [88.44956398985181, 22.479279145720177], [88.44296946682326, 22.462608711509503], [88.45344600904866, 22.462608711509503], [88.45015070776233, 22.454273780536283], [88.46062685968792, 22.454273780536283], [88.45074918362293, 22.429270131109792], [88.46122416576216, 22.429270131109792], [88.4546460970012, 22.412601983540807], [88.46512030020985, 22.412601983540807], [88.46183322377603, 22.404268195112337], [88.50372847986117, 22.404268195112337], [88.48075184295274, 22.345936994720596], [88.49122293784541, 22.345936994720596], [88.48467147226859, 22.329272644436408], [88.49514179193162, 22.329272644436408], [88.48532513870606, 22.30427753890582], [88.47485598050223, 22.30427753890582], [88.465054525482, 22.279284135188163], [88.47552252388756, 22.279284135188163], [88.46899524025957, 22.26262281034986], [88.47946246638831, 22.26262281034986], [88.46316957800725, 22.220972798323356], [88.47363487666786, 22.220972798323356], [88.46387665751416, 22.19598505058306], [88.453412513126, 22.19598505058306], [88.43248422434968, 22.19598505058306], [88.43573425556238, 22.204314111740107], [88.42526972660065, 22.204314111740107], [88.43177368202548, 22.220972798323356], [88.42130838336489, 22.220972798323356], [88.42456230794853, 22.229302423920874], [88.36176820523251, 22.229302423920874], [88.35851659140131, 22.220972798323356], [88.34805129274072, 22.220972798323356], [88.3448016173813, 22.212643360958328], [88.32387178994293, 22.212643360958328], [88.32712069541954, 22.220972798323356], [88.30619009809834, 22.220972798323356], [88.30294196250455, 22.212643360958328], [88.29247704878536, 22.212643360958328], [88.28923085009818, 22.204314111740107], [88.27876632113646, 22.204314111740107], [88.2690381854289, 22.179327492109987], [88.2795015612214, 22.179327492109987], [88.27626156579004, 22.17099899462277], [88.26579857401975, 22.17099899462277], [88.25533558224949, 22.17099899462277], [88.25209790415944, 22.16267068485434], [88.24163529622773, 22.16267068485434], [88.23839955063026, 22.154342562719158], [88.196550653523, 22.154342562719158], [88.19978486450078, 22.16267068485434], [88.18932225656906, 22.16267068485434], [88.19579455488149, 22.179327492109987], [88.185331179089, 22.179327492109987], [88.18856926679067, 22.187656177401546], [88.16764174679379, 22.187656177401546], [88.17412103151918, 22.204314111740107], [88.16365650255744, 22.204314111740107], [88.17663212933738, 22.237632237836557], [88.16616606024189, 22.237632237836557], [88.16941345814143, 22.24596224015613], [88.15894700355237, 22.24596224015613], [88.16219556719157, 22.254292430965318], [88.15172872692479, 22.254292430965318], [88.15497845639683, 22.26262281034986], [88.14451123026808, 22.26262281034986], [88.14776212566633, 22.270953378395546], [88.12682690131633, 22.270953378395546], [88.12357677801056, 22.26262281034986], [88.1131095518818, 22.26262281034986], [88.10661473060713, 22.24596224015613], [88.1170811851962, 22.24596224015613], [88.11059179436842, 22.229302423920874], [88.10012611058241, 22.229302423920874], [88.10336964566906, 22.237632237836557], [88.08243750747815, 22.237632237836557], [88.08568182142905, 22.24596224015613], [88.07521536684, 22.24596224015613], [88.07846084505725, 22.254292430965318], [88.06799400479045, 22.254292430965318], [88.07124064736678, 22.26262281034986], [88.08170787349555, 22.26262281034986], [88.08820658288144, 22.279284135188163], [88.098674581287, 22.279284135188163], [88.10518027011295, 22.29594621535745], [88.09471149869303, 22.29594621535745], [88.10448051755439, 22.32094075335938], [88.09401058522907, 22.32094075335938], [88.09726964473647, 22.329272644436408], [88.0763290054104, 22.329272644436408], [88.07307072057843, 22.32094075335938], [88.0626007882531, 22.32094075335938], [88.05934444394157, 22.3126090515445], [88.0488748987693, 22.3126090515445], [88.0423676415934, 22.29594621535745], [88.05283641301331, 22.29594621535745], [88.04958472547074, 22.28761508081352], [88.03911634065021, 22.28761508081352], [88.02864795582968, 22.28761508081352], [88.025398592448, 22.279284135188163], [88.01493059404243, 22.279284135188163], [88.01817957100916, 22.28761508081352], [87.99724280136809, 22.28761508081352], [88.00049255591368, 22.29594621535745], [87.99002378449374, 22.29594621535745], [87.9932747031264, 22.30427753890582], [87.95139807031111, 22.30427753890582], [87.95790146499992, 22.32094075335938], [87.94743153267461, 22.32094075335938], [87.95719709831988, 22.345936994720596], [87.94672600342724, 22.345936994720596], [87.95650437771855, 22.37093494176204], [87.94603211859511, 22.37093494176204], [87.95582331073967, 22.395934596806345], [87.94534988572055, 22.395934596806345], [87.95188434298626, 22.412601983540807], [87.9623585461949, 22.412601983540807], [87.95909015075432, 22.404268195112337], [87.96956396477562, 22.404268195112337], [87.96629673575882, 22.395934596806345], [87.98724358579709, 22.395934596806345], [87.98397713429164, 22.3876011885367], [88.0153962428981, 22.3876011885367], [88.01866386085452, 22.395934596806345], [88.02913728587366, 22.395934596806345], [88.0356779686554, 22.412601983540807], [88.02520376544678, 22.412601983540807], [88.02847605301515, 22.420935962177897], [88.03895064559642, 22.420935962177897], [88.04222488019312, 22.429270131109792], [88.05269986233235, 22.429270131109792], [88.05597604479516, 22.437604490422668], [88.06645141667772, 22.437604490422668], [88.07629048893428, 22.462608711509503], [88.06581394670887, 22.462608711509503], [88.07895299397016, 22.49595034352524], [88.08943109925139, 22.49595034352524], [88.09930295889393, 22.520958573483608], [88.08882367936985, 22.520958573483608], [88.09211703414404, 22.529295032682196], [88.05019834890295, 22.529295032682196], [88.05349169972654, 22.537631683297747], [88.0849318895741, 22.537631683297747], [88.09541195285661, 22.537631683297747], [88.0987084359788, 22.545968525416736], [88.11966934686055, 22.545968525416736], [88.13014980230143, 22.545968525416736], [88.13344902733832, 22.554305559125645], [88.1439298751237, 22.554305559125645], [88.15053380865255, 22.570980201659307], [88.1400521756194, 22.570980201659307], [88.1433560998086, 22.579317810657155], [88.12239204793565, 22.579317810657155], [88.12569675327498, 22.58765561159109], [88.08376707717018, 22.58765561159109], [88.08046394418976, 22.579317810657155], [88.06998191825328, 22.579317810657155], [88.06668074438747, 22.570980201659307], [88.05619911135433, 22.570980201659307], [88.05289989575786, 22.562642784510988], [88.04241865544174, 22.562642784510988], [88.03912139726981, 22.554305559125645], [88.02864054948444, 22.554305559125645], [88.03193741512564, 22.562642784510988], [88.00049369417725, 22.562642784510988], [87.99719800612826, 22.554305559125645], [87.97623631055748, 22.554305559125645], [87.979531213545, 22.562642784510988], [87.99001245386113, 22.562642784510988], [87.99990772496056, 22.58765561159109], [88.01039014398677, 22.58765561159109], [88.01369209071822, 22.59599360454773], [88.02417490302061, 22.59599360454773], [88.0175717885709, 22.579317810657155], [88.02805381450739, 22.579317810657155], [88.02475421225495, 22.570980201659307], [88.04571747832121, 22.570980201659307], [88.04901786638032, 22.579317810657155], [88.0594998923168, 22.579317810657155], [88.08264922903287, 22.637686452703843], [88.07216444755102, 22.637686452703843], [88.07879187005703, 22.654364939158526], [88.06830629959633, 22.654364939158526], [88.08157840723614, 22.687724225357393], [88.07109125657448, 22.687724225357393], [88.07773594708075, 22.70440502649078], [88.08822388896539, 22.70440502649078], [88.09154898847599, 22.712745716870018], [88.11252566402986, 22.712745716870018], [88.10919977273463, 22.70440502649078], [88.11968771461925, 22.70440502649078], [88.11303985922108, 22.687724225357393], [88.12352700988274, 22.687724225357393], [88.12020504538701, 22.679384114429464], [88.1306918007179, 22.679384114429464], [88.12737101298592, 22.67104419647823], [88.14834373336025, 22.67104419647823], [88.14502372733291, 22.662704471416852], [88.1555096925634, 22.662704471416852], [88.15219086328209, 22.654364939158526], [88.1626764337428, 22.654364939158526], [88.1593587811054, 22.64602559961644], [88.14887360522752, 22.64602559961644], [88.14555791792397, 22.637686452703843], [88.13507313644213, 22.637686452703843], [88.12844726041862, 22.621008736420155], [88.13893125366873, 22.621008736420155], [88.13562027576722, 22.612670166875603], [88.15658747459578, 22.612670166875603], [88.15989924016895, 22.621008736420155], [88.18086722666916, 22.621008736420155], [88.19135121991927, 22.621008736420155], [88.19466573725914, 22.629347498333992], [88.20515012453176, 22.629347498333992], [88.21178466049473, 22.64602559961644], [88.22226983637259, 22.64602559961644], [88.23223461485763, 22.67104419647823], [88.22174825467046, 22.67104419647823], [88.2250725986958, 22.679384114429464], [88.21458584336492, 22.679384114429464], [88.21791136583762, 22.687724225357393], [88.17596276319101, 22.687724225357393], [88.1892742657626, 22.721086600573493], [88.19976299961915, 22.721086600573493], [88.21025173347569, 22.721086600573493], [88.21358433853487, 22.729427677688157], [88.22407346865835, 22.729427677688157], [88.22740804625646, 22.737768948300978], [88.2378975728343, 22.737768948300978], [88.24457225223422, 22.754452070369044], [88.2340819321852, 22.754452070369044], [88.23742124147505, 22.76279392199833], [88.21643980734322, 22.76279392199833], [88.21977990041427, 22.771135967473835], [88.24076212895521, 22.771135967473835], [88.25125324322569, 22.771135967473835], [88.25459610676876, 22.779478206882647], [88.26508761843148, 22.779478206882647], [88.26174435749616, 22.771135967473835], [88.2932177003076, 22.771135967473835], [88.28987482680468, 22.76279392199833], [88.27938410973876, 22.76279392199833], [88.26936615256784, 22.737768948300978], [88.27985567914568, 22.737768948300978], [88.2765191192758, 22.729427677688157], [88.29749737952278, 22.729427677688157], [88.30083473230137, 22.737768948300978], [88.31132425887922, 22.737768948300978], [88.32134697800244, 22.76279392199833], [88.31085626093652, 22.76279392199833], [88.31419992884854, 22.771135967473835], [88.30370881457804, 22.771135967473835], [88.31374810740591, 22.796163267848563], [88.32424041441641, 22.796163267848563], [88.33429513284555, 22.821192315975242], [88.32380163140427, 22.821192315975242], [88.33051189337243, 22.837879320195356], [88.32001759470387, 22.837879320195356], [88.32337470203183, 22.84622311420778], [88.31288000446743, 22.84622311420778], [88.32968731273147, 22.88794500678505], [88.31919061786364, 22.88794500678505], [88.3292928325083, 22.91298048348794], [88.33979072801966, 22.91298048348794], [88.34653427560804, 22.929671778228517], [88.33603557872442, 22.929671778228517], [88.34616161245859, 22.9547101874969], [88.35666151281663, 22.9547101874969], [88.36342095385932, 22.971403439468702], [88.35292025024032, 22.971403439468702], [88.36645662008158, 23.00479229646856], [88.37695893249187, 23.00479229646856], [88.38034740845045, 23.01314000144986], [88.39085012353166, 23.01314000144986], [88.3942405958502, 23.021487902899068], [88.40474371379172, 23.021487902899068], [88.41153024774682, 23.038184295552185], [88.42203417197729, 23.038184295552185], [88.43222715012496, 23.063230360235217]], [[88.22158313195239, 22.379267970217292], [88.21831085580438, 22.37093494176204], [88.20783859668093, 22.37093494176204], [88.198032280851, 22.345936994720596], [88.20850337574365, 22.345936994720596], [88.20523733029898, 22.33760472486149], [88.19476662311351, 22.33760472486149], [88.19150252170373, 22.329272644436408], [88.18103220204071, 22.329272644436408], [88.17450944083653, 22.3126090515445], [88.18497898600877, 22.3126090515445], [88.18171955079521, 22.30427753890582], [88.21312702540668, 22.30427753890582], [88.20986798431224, 22.29594621535745], [88.2308055271521, 22.29594621535745], [88.23406534181433, 22.30427753890582], [88.24453450001813, 22.30427753890582], [88.26412839208923, 22.354269454099718], [88.25365690930457, 22.354269454099718], [88.2569276214772, 22.362602103084864], [88.24645575061562, 22.362602103084864], [88.24972763317469, 22.37093494176204], [88.23925537405124, 22.37093494176204], [88.24252842709292, 22.379267970217292], [88.22158313195239, 22.379267970217292]], [[88.24844249722187, 22.420935962177897], [88.25891708980315, 22.420935962177897], [88.27205612502729, 22.454273780536283], [88.2615799731017, 22.454273780536283], [88.26486824899146, 22.462608711509503], [88.25439170676606, 22.462608711509503], [88.25768115587675, 22.470943833208704], [88.22625035774432, 22.470943833208704], [88.22296208008987, 22.462608711509503], [88.21248553786447, 22.462608711509503], [88.20591445139222, 22.445939040202752], [88.21639021320355, 22.445939040202752], [88.20654412689679, 22.420935962177897], [88.21701871947806, 22.420935962177897], [88.21373942320238, 22.412601983540807], [88.2451620328283, 22.412601983540807], [88.24844249722187, 22.420935962177897]]]]}}