{"type": "Feature", "properties": {"ID_HDC_G0": 6823.0, "UC_NM_MN": "Shimla", "UACE20": null, "NAMELSAD20": null, "gadmid": null, "hierid": null, "ISO": null, "processing_id": 6822}, "geometry": {"type": "MultiPolygon", "coordinates": [[[[77.17129032409899, 31.13138715260749], [77.18227712511325, 31.13138715260749], [77.17359454598908, 31.11422641980872], [77.184580111049, 31.11422641980872], [77.17156850212511, 31.08848751833015], [77.18255221526232, 31.08848751833015], [77.17821815601869, 31.079908470095067], [77.16723505965382, 31.079908470095067], [77.15625196328892, 31.079908470095067], [77.16058478898788, 31.08848751833015], [77.14960107585065, 31.08848751833015], [77.1539351639695, 31.097066859282908], [77.1319665036153, 31.097066859282908], [77.1363012370975, 31.105646493070147], [77.14728618458213, 31.105646493070147], [77.15162341586922, 31.11422641980872], [77.16260898092915, 31.11422641980872], [77.17129032409899, 31.13138715260749]]]]}}